NORAD_CAT_ID,OBJECT_NAME,OBJECT_TYPE,EPOCH,MEAN_MOTION,ECCENTRICITY,INCLINATION,RA_OF_ASC_NODE,ARG_OF_PERICENTER,MEAN_ANOMALY,BSTAR,MEAN_MOTION_DOT,MEAN_MOTION_DDOT,TLE_LINE0,TLE_LINE1,TLE_LINE2,SEMIMAJOR_AXIS,PERIOD,APOGEE,PERIGEE,DECAYED
51464.0,STARLINK-3189,PAYLOAD,2023-12-04 08:20:43,15.08829098,0.0002378,53.2172,28.722,97.1984,262.9278,0.00044502,6.799e-05,0.0,0 STARLINK-3189,1 51464U 22010J   23338.34773119  .00006799  00000-0  44502-3 0  9998,2 51464  53.2172  28.7220 0002378  97.1984 262.9278 15.08829098102527,6917.914,95.438,541.424,538.134,0.0
51464.0,STARLINK-3189,PAYLOAD,2023-12-04 13:06:53,15.08841356,0.0002569,53.2179,27.8229,115.7699,244.3558,0.00076662,0.00011934,0.0,0 STARLINK-3189,1 51464U 22010J   23338.54644815  .00011934  00000-0  76662-3 0  9999,2 51464  53.2179  27.8229 0002569 115.7699 244.3558 15.08841356102600,6917.876,95.437,541.518,537.964,0.0
51464.0,STARLINK-3189,PAYLOAD,2023-12-05 08:11:30,15.0885161,0.0002617,53.2189,24.2526,139.4388,220.6799,0.00073243,0.00011392,0.0,0 STARLINK-3189,1 51464U 22010J   23339.34132109  .00011392  00000-0  73243-3 0  9996,2 51464  53.2189  24.2526 0002617 139.4388 220.6799 15.08851610102725,6917.845,95.437,541.52,537.9,0.0
51464.0,STARLINK-3189,PAYLOAD,2023-12-06 03:16:07,15.08853733,0.0001493,53.2191,20.689,96.8779,263.2383,0.00017599,2.515e-05,0.0,0 STARLINK-3189,1 51464U 22010J   23340.13619746  .00002515  00000-0  17599-3 0  9991,2 51464  53.2191  20.6890 0001493  96.8779 263.2383 15.08853733102790,6917.838,95.437,540.736,538.671,0.0
51464.0,STARLINK-3189,PAYLOAD,2023-12-06 08:02:17,15.08845674,0.0001723,53.2188,19.7996,107.2809,252.8372,5.3177e-05,5.58e-06,0.0,0 STARLINK-3189,1 51464U 22010J   23340.33491966  .00000558  00000-0  53177-4 0  9993,2 51464  53.2188  19.7996 0001723 107.2809 252.8372 15.08845674102875,6917.863,95.437,540.92,538.536,0.0
51464.0,STARLINK-3189,PAYLOAD,2023-12-07 09:28:27,15.0884162,0.0001762,53.2186,15.0367,109.0209,251.0974,-6.282e-05,-1.288e-05,0.0,0 STARLINK-3189,1 51464U 22010J   23341.39476200 -.00001288  00000-0 -62820-4 0  9992,2 51464  53.2186  15.0367 0001762 109.0209 251.0974 15.08841620102989,6917.875,95.437,540.959,538.522,0.0
51464.0,STARLINK-3189,PAYLOAD,2023-12-08 07:43:51,15.08837786,0.0001432,53.2182,10.8746,100.4058,259.7096,5.7574e-05,6.28e-06,0.0,0 STARLINK-3189,1 51464U 22010J   23342.32212119  .00000628  00000-0  57574-4 0  9998,2 51464  53.2182  10.8746 0001432 100.4058 259.7096 15.08837786103170,6917.887,95.438,540.743,538.762,0.0
51464.0,STARLINK-3189,PAYLOAD,2023-12-09 09:10:01,15.08843628,0.0001335,53.218,6.1165,88.7877,271.3268,0.00011624,1.563e-05,0.0,0 STARLINK-3189,1 51464U 22010J   23343.38195773  .00001563  00000-0  11624-3 0  9995,2 51464  53.2180   6.1165 0001335  88.7877 271.3268 15.08843628103285,6917.869,95.437,540.658,538.811,0.0
51464.0,STARLINK-3189,PAYLOAD,2023-12-10 01:03:52,15.08838336,0.0001415,53.2182,3.1435,80.2427,279.8725,4.7918e-05,4.75e-06,0.0,0 STARLINK-3189,1 51464U 22010J   23344.04436325  .00000475  00000-0  47918-4 0  9997,2 51464  53.2182   3.1435 0001415  80.2427 279.8725 15.08838336103383,6917.885,95.438,540.729,538.772,0.0
51464.0,STARLINK-3189,PAYLOAD,2023-12-11 07:16:12,15.0884191,0.0001775,53.2188,357.4947,66.7096,293.4083,4.599e-05,4.44e-06,0.0,0 STARLINK-3189,1 51464U 22010J   23345.30292241  .00000444  00000-0  45990-4 0  9998,2 51464  53.2188 357.4947 0001775  66.7096 293.4083 15.08841910103574,6917.875,95.437,540.967,538.512,0.0
51464.0,STARLINK-3189,PAYLOAD,2023-12-12 07:06:59,15.08842224,0.0001793,53.2183,353.0342,68.4461,291.6722,7.1339e-05,8.48e-06,0.0,0 STARLINK-3189,1 51464U 22010J   23346.29652106  .00000848  00000-0  71339-4 0  9991,2 51464  53.2183 353.0342 0001793  68.4461 291.6722 15.08842224103776,6917.874,95.437,540.979,538.498,0.0
51464.0,STARLINK-3189,PAYLOAD,2023-12-13 03:47:00,15.08839119,0.0001661,53.2181,349.1704,103.7861,256.3316,2.4414e-05,1.01e-06,0.0,0 STARLINK-3189,1 51464U 22010J   23347.15764291  .00000101  00000-0  24414-4 0  9990,2 51464  53.2181 349.1704 0001661 103.7861 256.3316 15.08839119103858,6917.883,95.438,540.897,538.599,0.0
51464.0,STARLINK-3189,PAYLOAD,2023-12-13 06:57:46,15.08838967,0.0001685,53.219,348.5717,105.5303,254.5875,1.5625e-05,-3.9e-07,0.0,0 STARLINK-3189,1 51464U 22010J   23347.29012232 -.00000039  00000-0  15625-4 0  9991,2 51464  53.2190 348.5717 0001685 105.5303 254.5875 15.08838967103920,6917.884,95.438,540.914,538.583,0.0
51464.0,STARLINK-3189,PAYLOAD,2023-12-14 05:13:10,15.08837857,0.0001447,53.2172,344.4023,99.136,260.9796,5.1648e-05,5.34e-06,0.0,0 STARLINK-3189,1 51464U 22010J   23348.21748232  .00000534  00000-0  51648-4 0  9994,2 51464  53.2172 344.4023 0001447  99.1360 260.9796 15.08837857104013,6917.887,95.438,540.753,538.751,0.0
51464.0,STARLINK-3189,PAYLOAD,2023-12-14 06:48:33,15.08842922,0.0001408,53.2178,344.1076,94.6717,265.4436,1.5799e-05,-3.6e-07,0.0,0 STARLINK-3189,1 51464U 22010J   23348.28372113 -.00000036  00000-0  15799-4 0  9997,2 51464  53.2178 344.1076 0001408  94.6717 265.4436 15.08842922104073,6917.871,95.437,540.71,538.762,0.0
51464.0,STARLINK-3189,PAYLOAD,2023-12-14 17:56:15,15.08837218,0.0001447,53.2178,342.029,97.8074,262.3083,6.4192e-05,7.34e-06,0.0,0 STARLINK-3189,1 51464U 22010J   23348.74740399  .00000734  00000-0  64192-4 0  9998,2 51464  53.2178 342.0290 0001447  97.8074 262.3083 15.08837218104146,6917.889,95.438,540.755,538.753,0.0
51464.0,STARLINK-3189,PAYLOAD,2023-12-15 06:39:20,15.08839382,0.00015,53.2179,339.6502,103.4098,256.7061,5.7362e-05,6.25e-06,0.0,0 STARLINK-3189,1 51464U 22010J   23349.27732352  .00000625  00000-0  57362-4 0  9997,2 51464  53.2179 339.6502 0001500 103.4098 256.7061 15.08839382104175,6917.882,95.438,540.785,538.71,0.0
51464.0,STARLINK-3189,PAYLOAD,2023-12-16 03:19:22,15.08831598,0.0001454,53.2173,335.7839,110.1265,249.9884,3.2843e-06,-2.36e-06,0.0,0 STARLINK-3189,1 51464U 22010J   23350.13845312 -.00000236  00000-0  32843-5 0  9992,2 51464  53.2173 335.7839 0001454 110.1265 249.9884 15.08831598104301,6917.906,95.438,540.777,538.765,0.0
51464.0,STARLINK-3189,PAYLOAD,2023-12-16 04:54:45,15.08832823,0.0001444,53.2175,335.4867,109.5123,250.6025,1.3527e-05,-7.3e-07,0.0,0 STARLINK-3189,1 51464U 22010J   23350.20469269 -.00000073  00000-0  13527-4 0  9999,2 51464  53.2175 335.4867 0001444 109.5123 250.6025 15.08832823104369,6917.902,95.438,540.766,538.768,0.0
51464.0,STARLINK-3189,PAYLOAD,2023-12-17 03:10:09,15.08837335,0.000142,53.2175,331.3233,109.3968,250.7178,5.4615e-05,5.81e-06,0.0,0 STARLINK-3189,1 51464U 22010J   23351.13205149  .00000581  00000-0  54615-4 0  9993,2 51464  53.2175 331.3233 0001420 109.3968 250.7178 15.08837335104453,6917.889,95.438,540.736,538.771,0.0
51464.0,STARLINK-3189,PAYLOAD,2023-12-17 06:20:55,15.08840507,0.0001377,53.2177,330.7277,103.0816,257.033,0.00011758,1.584e-05,0.0,0 STARLINK-3189,1 51464U 22010J   23351.26452895  .00001584  00000-0  11758-3 0  9993,2 51464  53.2177 330.7277 0001377 103.0816 257.0330 15.08840507104523,6917.879,95.438,540.696,538.791,0.0
51464.0,STARLINK-3189,PAYLOAD,2023-12-17 19:04:00,15.08843657,0.0001289,53.2178,328.35,84.865,275.2489,0.00016167,2.286e-05,0.0,0 STARLINK-3189,1 51464U 22010J   23351.79444680  .00002286  00000-0  16167-3 0  9993,2 51464  53.2178 328.3500 0001289  84.8650 275.2489 15.08843657104605,6917.869,95.437,540.626,538.842,0.0
51464.0,STARLINK-3189,PAYLOAD,2023-12-18 03:00:55,15.08854728,0.000132,53.218,326.8625,82.9505,277.1637,0.00024743,3.654e-05,0.0,0 STARLINK-3189,1 51464U 22010J   23352.12563780  .00003654  00000-0  24743-3 0  9993,2 51464  53.2180 326.8625 0001320  82.9505 277.1637 15.08854728104600,6917.835,95.437,540.614,538.787,0.0
51464.0,STARLINK-3189,PAYLOAD,2023-12-18 06:11:41,15.08857464,0.0001478,53.2188,326.2758,80.0511,280.0648,0.00030967,4.646e-05,0.0,0 STARLINK-3189,1 51464U 22010J   23352.25811610  .00004646  00000-0  30967-3 0  9992,2 51464  53.2188 326.2758 0001478  80.0511 280.0648 15.08857464104671,6917.827,95.436,540.714,538.67,0.0
51464.0,STARLINK-3189,PAYLOAD,2023-12-19 02:51:43,15.08831752,0.0001575,53.2177,322.4099,81.5318,278.5852,-9.6426e-05,-1.822e-05,0.0,0 STARLINK-3189,1 51464U 22010J   23353.11925800 -.00001822  00000-0 -96426-4 0  9993,2 51464  53.2177 322.4099 0001575  81.5318 278.5852 15.08831752104754,6917.906,95.438,540.86,538.681,0.0
51464.0,STARLINK-3189,PAYLOAD,2023-12-19 04:27:07,15.08832997,0.0001634,53.2179,322.1136,83.0278,277.09,-6.3837e-05,-1.304e-05,0.0,0 STARLINK-3189,1 51464U 22010J   23353.18549832 -.00001304  00000-0 -63837-4 0  9992,2 51464  53.2179 322.1136 0001634  83.0278 277.0900 15.08832997104810,6917.902,95.438,540.897,538.636,0.0
51464.0,STARLINK-3189,PAYLOAD,2023-12-20 04:17:54,15.08844644,0.0001736,53.2185,317.6559,84.2202,275.8988,0.00046134,7.063e-05,0.0,0 STARLINK-3189,1 51464U 22010J   23354.17909864  .00007063  00000-0  46134-3 0  9993,2 51464  53.2185 317.6559 0001736  84.2202 275.8988 15.08844644104913,6917.866,95.437,540.932,538.53,0.0
51464.0,STARLINK-3189,PAYLOAD,2023-12-21 04:08:40,15.08859189,0.0001863,53.2178,313.1924,99.9197,260.2005,0.00046451,7.116e-05,0.0,0 STARLINK-3189,1 51464U 22010J   23355.17268932  .00007116  00000-0  46451-3 0  9999,2 51464  53.2178 313.1924 0001863  99.9197 260.2005 15.08859189105110,6917.822,95.436,540.976,538.398,0.0
51464.0,STARLINK-3189,PAYLOAD,2023-12-22 03:59:27,15.08838088,0.0001549,53.2183,308.7283,103.2154,256.9012,-0.00010832,-2.011e-05,0.0,0 STARLINK-3189,1 51464U 22010J   23356.16629428 -.00002011  00000-0 -10832-3 0  9995,2 51464  53.2183 308.7283 0001549 103.2154 256.9012 15.08838088105213,6917.886,95.438,540.823,538.68,0.0
51464.0,STARLINK-3189,PAYLOAD,2023-12-23 02:14:51,15.08845062,0.0001499,53.2177,304.5642,103.9942,256.1217,0.00014998,2.1e-05,0.0,0 STARLINK-3189,1 51464U 22010J   23357.09365349  .00002100  00000-0  14998-3 0  9991,2 51464  53.2177 304.5642 0001499 103.9942 256.1217 15.08845062105359,6917.865,95.437,540.767,538.693,0.0
